[{"OBJECT_NAME":"STARLINK-30137","OBJECT_ID":"2023-079W","EPOCH":"2026-03-09T22:00:01.999584","MEAN_MOTION":15.20302785,"ECCENTRICITY":0.00014451,"INCLINATION":43.0008,"RA_OF_ASC_NODE":105.2617,"ARG_OF_PERICENTER":248.8465,"MEAN_ANOMALY":256.5906,"EPHEMERIS_TYPE":0,"CLASSIFICATION_TYPE":"U","NORAD_CAT_ID":56843,"ELEMENT_SET_NO":999,"REV_AT_EPOCH":578,"BSTAR":0.056859183,"MEAN_MOTION_DOT":0.0136961,"MEAN_MOTION_DDOT":0},{"OBJECT_NAME":"KUIPER-00200","OBJECT_ID":"2026-030J","EPOCH":"2026-03-09T16:14:07.210176","MEAN_MOTION":15.37115765,"ECCENTRICITY":0.00010486,"INCLINATION":51.8819,"RA_OF_ASC_NODE":218.9881,"ARG_OF_PERICENTER":264.9914,"MEAN_ANOMALY":95.0953,"EPHEMERIS_TYPE":0,"CLASSIFICATION_TYPE":"U","NORAD_CAT_ID":67772,"ELEMENT_SET_NO":999,"REV_AT_EPOCH":509,"BSTAR":0.00070618576,"MEAN_MOTION_DOT":0.00025755,"MEAN_MOTION_DDOT":0}]
